NORAD_CAT_ID,OBJECT_NAME,OBJECT_TYPE,EPOCH,MEAN_MOTION,ECCENTRICITY,INCLINATION,RA_OF_ASC_NODE,ARG_OF_PERICENTER,MEAN_ANOMALY,BSTAR,MEAN_MOTION_DOT,MEAN_MOTION_DDOT,TLE_LINE0,TLE_LINE1,TLE_LINE2,SEMIMAJOR_AXIS,PERIOD,APOGEE,PERIGEE,DECAYED
54772.0,STARLINK-5452,PAYLOAD,2024-06-13 19:30:31,15.08847077,0.0001256,53.2193,354.8479,87.8536,272.26,7.5821e-05,9.19e-06,0.0,0 STARLINK-5452,1 54772U 22175Q   24165.81285987  .00000919  00000-0  75821-4 0  9994,2 54772  53.2193 354.8479 0001256  87.8536 272.2600 15.08847077 84436,6917.859,95.437,540.593,538.855,0.0
54772.0,STARLINK-5452,PAYLOAD,2024-06-14 12:59:46,15.08839445,0.0001561,53.2151,351.5784,88.6187,271.4984,0.00019358,2.794e-05,0.0,0 STARLINK-5452,1 54772U 22175Q   24166.54150518  .00002794  00000-0  19358-3 0  9991,2 54772  53.2151 351.5784 0001561  88.6187 271.4984 15.08839445 84541,6917.882,95.438,540.827,538.667,0.0
54772.0,STARLINK-5452,PAYLOAD,2024-06-14 22:32:04,15.08857031,0.0001331,53.2182,349.7922,81.556,278.5583,0.00065261,0.00010118,0.0,0 STARLINK-5452,1 54772U 22175Q   24166.93893959  .00010118  00000-0  65261-3 0  9990,2 54772  53.2182 349.7922 0001331  81.5560 278.5583 15.08857031 84601,6917.828,95.436,540.614,538.773,0.0
54772.0,STARLINK-5452,PAYLOAD,2024-06-15 12:50:32,15.08839127,0.0001362,53.2185,347.1157,90.8423,269.2725,0.00013528,1.866e-05,0.0,0 STARLINK-5452,1 54772U 22175Q   24167.53510021  .00001866  00000-0  13528-3 0  9992,2 54772  53.2185 347.1157 0001362  90.8423 269.2725 15.08839127 84691,6917.883,95.438,540.69,538.806,0.0
54772.0,STARLINK-5452,PAYLOAD,2024-06-15 20:47:28,15.08850208,0.0001281,53.2183,345.6299,91.0969,269.017,0.00071166,0.00011059,0.0,0 STARLINK-5452,1 54772U 22175Q   24167.86629959  .00011059  00000-0  71166-3 0  9996,2 54772  53.2183 345.6299 0001281  91.0969 269.0170 15.08850208 84748,6917.849,95.437,540.6,538.828,0.0
54772.0,STARLINK-5452,PAYLOAD,2024-06-16 12:41:19,15.0884229,0.0001866,53.2143,342.6545,104.4845,255.6354,0.00056984,8.793e-05,0.0,0 STARLINK-5452,1 54772U 22175Q   24168.52870179  .00008793  00000-0  56984-3 0  9994,2 54772  53.2143 342.6545 0001866 104.4845 255.6354 15.08842290 84844,6917.873,95.437,541.029,538.448,0.0
54772.0,STARLINK-5452,PAYLOAD,2024-06-16 22:13:38,15.08844177,0.0001269,53.2169,340.873,100.512,259.6015,0.001527,0.000241,0.0,0 STARLINK-5452,1 54772U 22175Q   24168.92614314  .00024100  00000-0  15270-2 0  9997,2 54772  53.2169 340.8730 0001269 100.5120 259.6015 15.08844177 84909,6917.868,95.437,540.61,538.855,0.0
54772.0,STARLINK-5452,PAYLOAD,2024-06-17 22:04:26,15.08848208,0.000127,53.2172,336.4116,92.6016,267.5121,0.00088117,0.00013767,0.0,0 STARLINK-5452,1 54772U 22175Q   24169.91974588  .00013767  00000-0  88117-3 0  9997,2 54772  53.2172 336.4116 0001270  92.6016 267.5121 15.08848208 85051,6917.855,95.437,540.599,538.842,0.0
54772.0,STARLINK-5452,PAYLOAD,2024-06-18 10:47:31,15.08846042,0.0001338,53.2155,334.0321,92.734,267.3805,0.00062492,9.673e-05,0.0,0 STARLINK-5452,1 54772U 22175Q   24170.44966684  .00009673  00000-0  62492-3 0  9994,2 54772  53.2155 334.0321 0001338  92.7340 267.3805 15.08846042 85130,6917.862,95.437,540.653,538.801,0.0
54772.0,STARLINK-5452,PAYLOAD,2024-06-18 20:19:49,15.08853907,0.0001296,53.2164,332.2476,93.3052,266.8088,0.00080028,0.00012476,0.0,0 STARLINK-5452,1 54772U 22175Q   24170.84710524  .00012476  00000-0  80028-3 0  9998,2 54772  53.2164 332.2476 0001296  93.3052 266.8088 15.08853907 83033,6917.838,95.437,540.599,538.806,0.0
54772.0,STARLINK-5452,PAYLOAD,2024-06-18 21:55:12,15.08857027,0.0001413,53.2167,331.9502,95.4403,264.675,0.00086339,0.00013486,0.0,0 STARLINK-5452,1 54772U 22175Q   24170.91334439  .00013486  00000-0  86339-3 0  9996,2 54772  53.2167 331.9502 0001413  95.4403 264.6750 15.08857027 85206,6917.828,95.436,540.671,538.716,0.0
54772.0,STARLINK-5452,PAYLOAD,2024-06-19 10:38:18,15.08848748,0.0002,53.2186,329.5707,95.3446,264.7774,0.00047202,7.234e-05,0.0,0 STARLINK-5452,1 54772U 22175Q   24171.44326640  .00007234  00000-0  47202-3 0  9990,2 54772  53.2186 329.5707 0002000  95.3446 264.7774 15.08848748 83122,6917.854,95.437,541.102,538.335,0.0
54772.0,STARLINK-5452,PAYLOAD,2024-06-19 13:49:04,15.08844201,0.0001624,53.2177,328.9745,120.7766,239.3386,0.00025801,3.821e-05,0.0,0 STARLINK-5452,1 54772U 22175Q   24171.57574481  .00003821  00000-0  25801-3 0  9991,2 54772  53.2177 328.9745 0001624 120.7766 239.3386 15.08844201 85305,6917.868,95.437,540.856,538.609,0.0
54772.0,STARLINK-5452,PAYLOAD,2024-06-19 20:10:37,15.08840027,0.0001429,53.218,327.788,98.9142,261.2012,0.00017994,2.577e-05,0.0,0 STARLINK-5452,1 54772U 22175Q   24171.84070714  .00002577  00000-0  17994-3 0  9992,2 54772  53.2180 327.7880 0001429  98.9142 261.2012 15.08840027 83189,6917.88,95.438,540.734,538.757,0.0
54772.0,STARLINK-5452,PAYLOAD,2024-06-20 13:39:51,15.08842902,0.0001426,53.2171,324.5158,97.7435,262.3719,0.00021256,3.097e-05,0.0,0 STARLINK-5452,1 54772U 22175Q   24172.56934826  .00003097  00000-0  21256-3 0  9999,2 54772  53.2171 324.5158 0001426  97.7435 262.3719 15.08842902 85453,6917.872,95.437,540.723,538.75,0.0
54772.0,STARLINK-5452,PAYLOAD,2024-06-20 16:50:38,15.08840796,0.0001211,53.2171,323.9217,86.0878,274.0253,0.00025626,3.793e-05,0.0,0 STARLINK-5452,1 54772U 22175Q   24172.70182939  .00003793  00000-0  25626-3 0  9993,2 54772  53.2171 323.9217 0001211  86.0878 274.0253 15.08840796 85470,6917.878,95.438,540.581,538.905,0.0
54772.0,STARLINK-5452,PAYLOAD,2024-06-21 13:30:38,15.08840169,0.0001229,53.2174,320.0571,84.1332,275.98,0.00016423,2.327e-05,0.0,0 STARLINK-5452,1 54772U 22175Q   24173.56295077  .00002327  00000-0  16423-3 0  9993,2 54772  53.2174 320.0571 0001229  84.1332 275.9800 15.08840169 83444,6917.88,95.438,540.595,538.895,0.0
54772.0,STARLINK-5452,PAYLOAD,2024-06-21 15:06:02,15.0883932,0.0001268,53.2175,319.7598,85.065,275.0487,0.00014575,2.032e-05,0.0,0 STARLINK-5452,1 54772U 22175Q   24173.62919130  .00002032  00000-0  14575-3 0  9992,2 54772  53.2175 319.7598 0001268  85.0650 275.0487 15.08839320 85615,6917.882,95.438,540.625,538.87,0.0
54772.0,STARLINK-5452,PAYLOAD,2024-06-22 13:21:26,15.08834922,0.0001157,53.2172,315.5967,82.4493,277.663,3.1439e-05,2.13e-06,0.0,0 STARLINK-5452,1 54772U 22175Q   24174.55655450  .00000213  00000-0  31439-4 0  9995,2 54772  53.2172 315.5967 0001157  82.4493 277.6630 15.08834922 83595,6917.896,95.438,540.561,538.961,0.0
54772.0,STARLINK-5452,PAYLOAD,2024-06-22 14:56:49,15.08834423,0.0001161,53.2175,315.2995,82.4292,277.6832,1.6015e-05,-3.3e-07,0.0,0 STARLINK-5452,1 54772U 22175Q   24174.62279474 -.00000033  00000-0  16015-4 0  9995,2 54772  53.2175 315.2995 0001161  82.4292 277.6832 15.08834423 85769,6917.897,95.438,540.566,538.959,0.0
54772.0,STARLINK-5452,PAYLOAD,2024-06-23 13:12:13,15.08839573,0.000142,53.2187,311.1342,112.302,247.8123,9.6412e-05,1.247e-05,0.0,0 STARLINK-5452,1 54772U 22175Q   24175.55015218  .00001247  00000-0  96412-4 0  9998,2 54772  53.2187 311.1342 0001420 112.3020 247.8123 15.08839573 85902,6917.882,95.438,540.729,538.764,0.0
54772.0,STARLINK-5452,PAYLOAD,2024-06-23 17:58:22,15.08842,0.0001194,53.2177,310.2421,100.7536,259.359,0.00012756,1.743e-05,0.0,0 STARLINK-5452,1 54772U 22175Q   24175.74887145  .00001743  00000-0  12756-3 0  9994,2 54772  53.2177 310.2421 0001194 100.7536 259.3590 15.08842000 83778,6917.874,95.437,540.565,538.913,0.0
54772.0,STARLINK-5452,PAYLOAD,2024-06-24 14:38:23,15.08838283,0.0001232,53.2182,306.3767,99.1002,261.013,9.1829e-05,1.174e-05,0.0,0 STARLINK-5452,1 54772U 22175Q   24176.60999459  .00001174  00000-0  91829-4 0  9999,2 54772  53.2182 306.3767 0001232  99.1002 261.0130 15.08838283 86068,6917.886,95.438,540.603,538.898,0.0
54772.0,STARLINK-5452,PAYLOAD,2024-06-24 16:13:46,15.08838577,0.0001216,53.218,306.0792,98.2258,261.8872,9.2645e-05,1.187e-05,0.0,0 STARLINK-5452,1 54772U 22175Q   24176.67623454  .00001187  00000-0  92645-4 0  9996,2 54772  53.2180 306.0792 0001216  98.2258 261.8872 15.08838577 83914,6917.885,95.438,540.591,538.909,0.0
54772.0,STARLINK-5452,PAYLOAD,2024-06-25 14:29:10,15.08840359,0.0001375,53.2179,301.9163,80.9538,279.1609,6.0221e-05,6.71e-06,0.0,0 STARLINK-5452,1 54772U 22175Q   24177.60359635  .00000671  00000-0  60221-4 0  9999,2 54772  53.2179 301.9163 0001375  80.9538 279.1609 15.08840359 86210,6917.879,95.438,540.696,538.793,0.0
54772.0,STARLINK-5452,PAYLOAD,2024-06-25 16:04:33,15.08844198,0.0001442,53.2187,301.6191,78.4936,281.6218,9.2149e-05,1.179e-05,0.0,0 STARLINK-5452,1 54772U 22175Q   24177.66983536  .00001179  00000-0  92149-4 0  9996,2 54772  53.2187 301.6191 0001442  78.4936 281.6218 15.08844198 86226,6917.868,95.437,540.73,538.735,0.0
54772.0,STARLINK-5452,PAYLOAD,2024-06-26 15:55:20,15.08843419,0.0001589,53.2191,297.1583,72.795,287.3216,0.00012866,1.76e-05,0.0,0 STARLINK-5452,1 54772U 22175Q   24178.66343476  .00001760  00000-0  12866-3 0  9993,2 54772  53.2191 297.1583 0001589  72.7950 287.3216 15.08843419 84213,6917.87,95.437,540.834,538.636,0.0
54772.0,STARLINK-5452,PAYLOAD,2024-06-27 14:10:44,15.08841057,0.000128,53.2183,292.9957,88.715,271.3989,1.1439e-05,-1.06e-06,0.0,0 STARLINK-5452,1 54772U 22175Q   24179.59079766 -.00000106  00000-0  11439-4 0  9994,2 54772  53.2183 292.9957 0001280  88.7150 271.3989 15.08841057 84350,6917.877,95.437,540.628,538.857,0.0
54772.0,STARLINK-5452,PAYLOAD,2024-06-28 14:01:31,15.08848311,0.0001114,53.2173,288.5371,85.4975,274.6144,0.00018872,2.718e-05,0.0,0 STARLINK-5452,1 54772U 22175Q   24180.58438842  .00002718  00000-0  18872-3 0  9996,2 54772  53.2173 288.5371 0001114  85.4975 274.6144 15.08848311 84501,6917.855,95.437,540.491,538.949,0.0
54772.0,STARLINK-5452,PAYLOAD,2024-06-29 13:52:19,15.08822054,0.000108,53.2166,284.0776,99.0976,261.0138,-0.00021292,-3.673e-05,0.0,0 STARLINK-5452,1 54772U 22175Q   24181.57800522 -.00003673  00000-0 -21292-3 0  9997,2 54772  53.2166 284.0776 0001080  99.0976 261.0138 15.08822054 84652,6917.935,95.439,540.547,539.053,0.0
